{
  "type": "FeatureCollection",
  "features": [
    {
      "type": "Feature",
      "properties": {
        "norad_id": 38833,
        "name": "GPS BIIF-3  (PRN 24)",
        "group": "gps-ops",
        "lat": -17.90017724166537,
        "lon": 137.43729799275914,
        "alt_km": 20147.76770432365,
        "timestamp": "2025-12-12T07:43:20.772238+00:00",
        "meta_object_name": "GPS BIIF-3  (PRN 24)",
        "meta_object_id": "2012-053A",
        "meta_epoch": "2025-12-09T20:38:00.572640",
        "meta_mean_motion": 2.00564945,
        "meta_eccentricity": 0.0175755,
        "meta_inclination": 53.5569,
        "meta_ra_of_asc_node": 151.3565,
        "meta_arg_of_pericenter": 63.953,
        "meta_mean_anomaly": 297.8432,
        "meta_ephemeris_type": 0,
        "meta_classification_type": "U",
        "meta_norad_cat_id": 38833,
        "meta_element_set_no": 999,
        "meta_rev_at_epoch": 9564,
        "meta_bstar": 0,
        "meta_mean_motion_dot": 6.8e-07,
        "meta_mean_motion_ddot": 0,
        "tle_line1": "1 38833U 12053A   25343.85972885  .00000068  00000+0  00000+0 0  9997",
        "tle_line2": "2 38833  53.5569 151.3565 0175755  63.9530 297.8432  2.00564945 95646"
      },
      "geometry": {
        "type": "Point",
        "coordinates": [
          137.43729799275914,
          -17.90017724166537
        ]
      }
    },
    {
      "type": "Feature",
      "properties": {
        "norad_id": 39166,
        "name": "GPS BIIF-4  (PRN 27)",
        "group": "gps-ops",
        "lat": 52.91338835510748,
        "lon": -13.75211148796877,
        "alt_km": 19855.91106995793,
        "timestamp": "2025-12-12T07:43:20.772250+00:00",
        "meta_object_name": "GPS BIIF-4  (PRN 27)",
        "meta_object_id": "2013-023A",
        "meta_epoch": "2025-12-11T05:15:59.310144",
        "meta_mean_motion": 2.0056514,
        "meta_eccentricity": 0.01377988,
        "meta_inclination": 54.6533,
        "meta_ra_of_asc_node": 276.63,
        "meta_arg_of_pericenter": 48.5969,
        "meta_mean_anomaly": 312.5932,
        "meta_ephemeris_type": 0,
        "meta_classification_type": "U",
        "meta_norad_cat_id": 39166,
        "meta_element_set_no": 999,
        "meta_rev_at_epoch": 9211,
        "meta_bstar": 0,
        "meta_mean_motion_dot": -6.7e-07,
        "meta_mean_motion_ddot": 0,
        "tle_line1": "1 39166U 13023A   25345.21943646 -.00000067  00000+0  00000+0 0  9990",
        "tle_line2": "2 39166  54.6533 276.6300 0137798  48.5969 312.5932  2.00565140 92114"
      },
      "geometry": {
        "type": "Point",
        "coordinates": [
          -13.75211148796877,
          52.91338835510748
        ]
      }
    },
    {
      "type": "Feature",
      "properties": {
        "norad_id": 39533,
        "name": "GPS BIIF-5  (PRN 30)",
        "group": "gps-ops",
        "lat": 52.23570936593486,
        "lon": -130.99132448872317,
        "alt_km": 20351.69510389825,
        "timestamp": "2025-12-12T07:43:20.772261+00:00",
        "meta_object_name": "GPS BIIF-5  (PRN 30)",
        "meta_object_id": "2014-008A",
        "meta_epoch": "2025-12-11T17:05:22.086816",
        "meta_mean_motion": 2.00574377,
        "meta_eccentricity": 0.00791888,
        "meta_inclination": 53.6311,
        "meta_ra_of_asc_node": 156.9665,
        "meta_arg_of_pericenter": 226.4865,
        "meta_mean_anomaly": 132.8633,
        "meta_ephemeris_type": 0,
        "meta_classification_type": "U",
        "meta_norad_cat_id": 39533,
        "meta_element_set_no": 999,
        "meta_rev_at_epoch": 8592,
        "meta_bstar": 0,
        "meta_mean_motion_dot": 8.7e-07,
        "meta_mean_motion_ddot": 0,
        "tle_line1": "1 39533U 14008A   25345.71206119  .00000087  00000+0  00000+0 0  9995",
        "tle_line2": "2 39533  53.6311 156.9665 0079188 226.4865 132.8633  2.00574377 85923"
      },
      "geometry": {
        "type": "Point",
        "coordinates": [
          -130.99132448872317,
          52.23570936593486
        ]
      }
    },
    {
      "type": "Feature",
      "properties": {
        "norad_id": 39741,
        "name": "GPS BIIF-6  (PRN 06)",
        "group": "gps-ops",
        "lat": -43.154677166312574,
        "lon": -162.97363679942129,
        "alt_km": 20175.272854373055,
        "timestamp": "2025-12-12T07:43:20.772273+00:00",
        "meta_object_name": "GPS BIIF-6  (PRN 06)",
        "meta_object_id": "2014-026A",
        "meta_epoch": "2025-12-11T11:55:13.475136",
        "meta_mean_motion": 2.00561432,
        "meta_eccentricity": 0.00391541,
        "meta_inclination": 56.584,
        "meta_ra_of_asc_node": 338.8247,
        "meta_arg_of_pericenter": 318.6056,
        "meta_mean_anomaly": 41.1101,
        "meta_ephemeris_type": 0,
        "meta_classification_type": "U",
        "meta_norad_cat_id": 39741,
        "meta_element_set_no": 999,
        "meta_rev_at_epoch": 8477,
        "meta_bstar": 0,
        "meta_mean_motion_dot": -8.5e-07,
        "meta_mean_motion_ddot": 0,
        "tle_line1": "1 39741U 14026A   25345.49668374 -.00000085  00000+0  00000+0 0  9995",
        "tle_line2": "2 39741  56.5840 338.8247 0039154 318.6056  41.1101  2.00561432 84777"
      },
      "geometry": {
        "type": "Point",
        "coordinates": [
          -162.97363679942129,
          -43.154677166312574
        ]
      }
    },
    {
      "type": "Feature",
      "properties": {
        "norad_id": 40105,
        "name": "GPS BIIF-7  (PRN 09)",
        "group": "gps-ops",
        "lat": 5.588862394597246,
        "lon": -87.98432924271415,
        "alt_km": 20128.854509224573,
        "timestamp": "2025-12-12T07:43:20.772285+00:00",
        "meta_object_name": "GPS BIIF-7  (PRN 09)",
        "meta_object_id": "2014-045A",
        "meta_epoch": "2025-12-11T14:01:23.585664",
        "meta_mean_motion": 2.00572456,
        "meta_eccentricity": 0.00327154,
        "meta_inclination": 55.2284,
        "meta_ra_of_asc_node": 95.945,
        "meta_arg_of_pericenter": 119.8377,
        "meta_mean_anomaly": 240.477,
        "meta_ephemeris_type": 0,
        "meta_classification_type": "U",
        "meta_norad_cat_id": 40105,
        "meta_element_set_no": 999,
        "meta_rev_at_epoch": 8231,
        "meta_bstar": 0,
        "meta_mean_motion_dot": -5e-08,
        "meta_mean_motion_ddot": 0,
        "tle_line1": "1 40105U 14045A   25345.58430076 -.00000005  00000+0  00000+0 0  9990",
        "tle_line2": "2 40105  55.2284  95.9450 0032715 119.8377 240.4770  2.00572456 82313"
      },
      "geometry": {
        "type": "Point",
        "coordinates": [
          -87.98432924271415,
          5.588862394597246
        ]
      }
    },
    {
      "type": "Feature",
      "properties": {
        "norad_id": 40294,
        "name": "GPS BIIF-8  (PRN 03)",
        "group": "gps-ops",
        "lat": -55.85744468246233,
        "lon": -67.52619602324349,
        "alt_km": 20346.063996393714,
        "timestamp": "2025-12-12T07:43:20.772296+00:00",
        "meta_object_name": "GPS BIIF-8  (PRN 03)",
        "meta_object_id": "2014-068A",
        "meta_epoch": "2025-12-11T11:05:24.874944",
        "meta_mean_motion": 2.00564727,
        "meta_eccentricity": 0.00607772,
        "meta_inclination": 56.8569,
        "meta_ra_of_asc_node": 38.1954,
        "meta_arg_of_pericenter": 69.205,
        "meta_mean_anomaly": 291.4964,
        "meta_ephemeris_type": 0,
        "meta_classification_type": "U",
        "meta_norad_cat_id": 40294,
        "meta_element_set_no": 999,
        "meta_rev_at_epoch": 8144,
        "meta_bstar": 0,
        "meta_mean_motion_dot": -9.3e-07,
        "meta_mean_motion_ddot": 0,
        "tle_line1": "1 40294U 14068A   25345.46209346 -.00000093  00000+0  00000+0 0  9992",
        "tle_line2": "2 40294  56.8569  38.1954 0060777  69.2050 291.4964  2.00564727 81444"
      },
      "geometry": {
        "type": "Point",
        "coordinates": [
          -67.52619602324349,
          -55.85744468246233
        ]
      }
    },
    {
      "type": "Feature",
      "properties": {
        "norad_id": 40534,
        "name": "GPS BIIF-9  (PRN 26)",
        "group": "gps-ops",
        "lat": 9.078211693178398,
        "lon": 25.049984381597373,
        "alt_km": 20362.901194467806,
        "timestamp": "2025-12-12T07:43:20.772307+00:00",
        "meta_object_name": "GPS BIIF-9  (PRN 26)",
        "meta_object_id": "2015-013A",
        "meta_epoch": "2025-12-11T14:12:34.875648",
        "meta_mean_motion": 2.00562655,
        "meta_eccentricity": 0.01070076,
        "meta_inclination": 53.1979,
        "meta_ra_of_asc_node": 211.9377,
        "meta_arg_of_pericenter": 38.4526,
        "meta_mean_anomaly": 322.3807,
        "meta_ephemeris_type": 0,
        "meta_classification_type": "U",
        "meta_norad_cat_id": 40534,
        "meta_element_set_no": 999,
        "meta_rev_at_epoch": 7806,
        "meta_bstar": 0,
        "meta_mean_motion_dot": 2.2e-07,
        "meta_mean_motion_ddot": 0,
        "tle_line1": "1 40534U 15013A   25345.59207032  .00000022  00000+0  00000+0 0  9995",
        "tle_line2": "2 40534  53.1979 211.9377 0107007  38.4526 322.3807  2.00562655 78062"
      },
      "geometry": {
        "type": "Point",
        "coordinates": [
          25.049984381597373,
          9.078211693178398
        ]
      }
    }
  ]
}